[{"OBJECT_NAME":"SPARK 2","OBJECT_ID":"2016-081D","EPOCH":"2026-03-09T21:43:21.567936","MEAN_MOTION":14.59036805,"ECCENTRICITY":0.00241409,"INCLINATION":98.5438,"RA_OF_ASC_NODE":55.7698,"ARG_OF_PERICENTER":270.8992,"MEAN_ANOMALY":88.944,"EPHEMERIS_TYPE":0,"CLASSIFICATION_TYPE":"U","NORAD_CAT_ID":41901,"ELEMENT_SET_NO":999,"REV_AT_EPOCH":48964,"BSTAR":0.00022054708,"MEAN_MOTION_DOT":9.9e-6,"MEAN_MOTION_DDOT":0},{"OBJECT_NAME":"SCOUT X-4 DEB","OBJECT_ID":"1965-093D","EPOCH":"2026-03-09T12:23:21.547968","MEAN_MOTION":14.62060083,"ECCENTRICITY":0.00728203,"INCLINATION":59.7159,"RA_OF_ASC_NODE":180.6377,"ARG_OF_PERICENTER":334.7364,"MEAN_ANOMALY":25.0129,"EPHEMERIS_TYPE":0,"CLASSIFICATION_TYPE":"U","NORAD_CAT_ID":2088,"ELEMENT_SET_NO":999,"REV_AT_EPOCH":13932,"BSTAR":0.00035945124,"MEAN_MOTION_DOT":1.709e-5,"MEAN_MOTION_DDOT":0}]
